STARLINK-5685
1 55477U 23015AE  26092.58448076 -.00034732  00000+0 -20921-2 0  9996
2 55477  43.0005 182.7053 0001266 239.4097 120.6624 15.10102817174501
